{"type": "FeatureCollection", "features": [ {"type": "Feature", "properties": {"norad_id": 66628, "name": "STARLINK-35862", "group": "last-30-days", "lat": 48.807925917705056, "lon": -124.01662621466862, "alt_km": 411.91484109243356, "timestamp": "2025-12-14T20:40:30.515765+00:00", "meta": {"OBJECT_NAME": "STARLINK-35862", "OBJECT_ID": "2025-271M", "EPOCH": "2025-12-14T06:00:02.999808", "MEAN_MOTION": 15.49350243, "ECCENTRICITY": 7.8e-05, "INCLINATION": 53.1601, "RA_OF_ASC_NODE": 179.9668, "ARG_OF_PERICENTER": 88.1004, "MEAN_ANOMALY": 169.9119, "EPHEMERIS_TYPE": 0, "CLASSIFICATION_TYPE": "U", "NORAD_CAT_ID": 66628, "ELEMENT_SET_NO": 999, "REV_AT_EPOCH": 448, "BSTAR": -0.0017054899, "MEAN_MOTION_DOT": -0.00094299, "MEAN_MOTION_DDOT": 0}, "tle": {"line1": "1 66628U 25271M   25348.25003472 -.00094299  00000+0 -17055-2 0  9994", "line2": "2 66628  53.1601 179.9668 0000780  88.1004 169.9119 15.49350243  4486"}}, "geometry": {"type": "Point", "coordinates": [-124.01662621466862, 48.807925917705056]}}, {"type": "Feature", "properties": {"norad_id": 66629, "name": "STARLINK-35956", "group": "last-30-days", "lat": 49.569722085528035, "lon": -121.32185472724468, "alt_km": 411.81322636898767, "timestamp": "2025-12-14T20:40:30.515775+00:00", "meta": {"OBJECT_NAME": "STARLINK-35956", "OBJECT_ID": "2025-271N", "EPOCH": "2025-12-14T06:00:02.999808", "MEAN_MOTION": 15.49349379, "ECCENTRICITY": 7.644e-05, "INCLINATION": 53.1601, "RA_OF_ASC_NODE": 179.9633, "ARG_OF_PERICENTER": 91.6766, "MEAN_ANOMALY": 168.251, "EPHEMERIS_TYPE": 0, "CLASSIFICATION_TYPE": "U", "NORAD_CAT_ID": 66629, "ELEMENT_SET_NO": 999, "REV_AT_EPOCH": 448, "BSTAR": -0.0016430753, "MEAN_MOTION_DOT": -0.00090901, "MEAN_MOTION_DDOT": 0}, "tle": {"line1": "1 66629U 25271N   25348.25003472 -.00090901  00000+0 -16431-2 0  9998", "line2": "2 66629  53.1601 179.9633 0000764  91.6766 168.2510 15.49349379  4480"}}, "geometry": {"type": "Point", "coordinates": [-121.32185472724468, 49.569722085528035]}}, {"type": "Feature", "properties": {"norad_id": 66630, "name": "STARLINK-35949", "group": "last-30-days", "lat": 50.244228356833524, "lon": -118.64283821986297, "alt_km": 411.3854099755308, "timestamp": "2025-12-14T20:40:30.515786+00:00", "meta": {"OBJECT_NAME": "STARLINK-35949", "OBJECT_ID": "2025-271P", "EPOCH": "2025-12-14T06:00:02.999808", "MEAN_MOTION": 15.49263713, "ECCENTRICITY": 9.548e-05, "INCLINATION": 53.1601, "RA_OF_ASC_NODE": 179.9581, "ARG_OF_PERICENTER": 90.462, "MEAN_ANOMALY": 171.3373, "EPHEMERIS_TYPE": 0, "CLASSIFICATION_TYPE": "U", "NORAD_CAT_ID": 66630, "ELEMENT_SET_NO": 999, "REV_AT_EPOCH": 448, "BSTAR": 0.00062381166, "MEAN_MOTION_DOT": 0.00034343, "MEAN_MOTION_DDOT": 0}, "tle": {"line1": "1 66630U 25271P   25348.25003472  .00034343  00000+0  62381-3 0  9992", "line2": "2 66630  53.1601 179.9581 0000954  90.4620 171.3373 15.49263713  4480"}}, "geometry": {"type": "Point", "coordinates": [-118.64283821986297, 50.244228356833524]}}, {"type": "Feature", "properties": {"norad_id": 66631, "name": "STARLINK-35965", "group": "last-30-days", "lat": 50.891885306875004, "lon": -115.71003427082533, "alt_km": 411.73774246100766, "timestamp": "2025-12-14T20:40:30.515796+00:00", "meta": {"OBJECT_NAME": "STARLINK-35965", "OBJECT_ID": "2025-271Q", "EPOCH": "2025-12-14T06:00:02.999808", "MEAN_MOTION": 15.49399835, "ECCENTRICITY": 7.796e-05, "INCLINATION": 53.16, "RA_OF_ASC_NODE": 179.9549, "ARG_OF_PERICENTER": 46.3904, "MEAN_ANOMALY": 217.3385, "EPHEMERIS_TYPE": 0, "CLASSIFICATION_TYPE": "U", "NORAD_CAT_ID": 66631, "ELEMENT_SET_NO": 999, "REV_AT_EPOCH": 448, "BSTAR": -0.0029275548, "MEAN_MOTION_DOT": -0.00160477, "MEAN_MOTION_DDOT": 0}, "tle": {"line1": "1 66631U 25271Q   25348.25003472 -.00160477  00000+0 -29276-2 0  9998", "line2": "2 66631  53.1600 179.9549 0000779  46.3904 217.3385 15.49399835  4483"}}, "geometry": {"type": "Point", "coordinates": [-115.71003427082533, 50.891885306875004]}}, {"type": "Feature", "properties": {"norad_id": 66632, "name": "STARLINK-35973", "group": "last-30-days", "lat": 47.851995410596, "lon": -127.02594844360078, "alt_km": 426.17507360711534, "timestamp": "2025-12-14T20:40:30.515808+00:00", "meta": {"OBJECT_NAME": "STARLINK-35973", "OBJECT_ID": "2025-271R", "EPOCH": "2025-12-14T06:00:02.999808", "MEAN_MOTION": 15.47112562, "ECCENTRICITY": 0.00010212, "INCLINATION": 53.16, "RA_OF_ASC_NODE": 179.9544, "ARG_OF_PERICENTER": 94.7509, "MEAN_ANOMALY": 168.9468, "EPHEMERIS_TYPE": 0, "CLASSIFICATION_TYPE": "U", "NORAD_CAT_ID": 66632, "ELEMENT_SET_NO": 999, "REV_AT_EPOCH": 442, "BSTAR": -0.046085486, "MEAN_MOTION_DOT": -0.02105455, "MEAN_MOTION_DDOT": 0}, "tle": {"line1": "1 66632U 25271R   25348.25003472 -.02105455  00000+0 -46085-1 0  9992", "line2": "2 66632  53.1600 179.9544 0001021  94.7509 168.9468 15.47112562  4423"}}, "geometry": {"type": "Point", "coordinates": [-127.02594844360078, 47.851995410596]}}, {"type": "Feature", "properties": {"norad_id": 66633, "name": "STARLINK-35948", "group": "last-30-days", "lat": 48.66460287197998, "lon": -124.49393620812582, "alt_km": 426.00539444150127, "timestamp": "2025-12-14T20:40:30.515818+00:00", "meta": {"OBJECT_NAME": "STARLINK-35948", "OBJECT_ID": "2025-271S", "EPOCH": "2025-12-14T06:00:02.999808", "MEAN_MOTION": 15.47096842, "ECCENTRICITY": 0.00011555, "INCLINATION": 53.1602, "RA_OF_ASC_NODE": 179.9496, "ARG_OF_PERICENTER": 95.1695, "MEAN_ANOMALY": 170.4327, "EPHEMERIS_TYPE": 0, "CLASSIFICATION_TYPE": "U", "NORAD_CAT_ID": 66633, "ELEMENT_SET_NO": 999, "REV_AT_EPOCH": 448, "BSTAR": -0.046082102, "MEAN_MOTION_DOT": -0.02104372, "MEAN_MOTION_DDOT": 0}, "tle": {"line1": "1 66633U 25271S   25348.25003472 -.02104372  00000+0 -46082-1 0  9997", "line2": "2 66633  53.1602 179.9496 0001155  95.1695 170.4327 15.47096842  4481"}}, "geometry": {"type": "Point", "coordinates": [-124.49393620812582, 48.66460287197998]}}, {"type": "Feature", "properties": {"norad_id": 66634, "name": "STARLINK-35967", "group": "last-30-days", "lat": 52.0894095125996, "lon": -108.68178830414965, "alt_km": 415.35521854673516, "timestamp": "2025-12-14T20:40:30.515828+00:00", "meta": {"OBJECT_NAME": "STARLINK-35967", "OBJECT_ID": "2025-271T", "EPOCH": "2025-12-14T06:00:02.999808", "MEAN_MOTION": 15.49767212, "ECCENTRICITY": 0.00010819, "INCLINATION": 53.1602, "RA_OF_ASC_NODE": 179.9418, "ARG_OF_PERICENTER": 92.5831, "MEAN_ANOMALY": 176.8387, "EPHEMERIS_TYPE": 0, "CLASSIFICATION_TYPE": "U", "NORAD_CAT_ID": 66634, "ELEMENT_SET_NO": 999, "REV_AT_EPOCH": 441, "BSTAR": -0.029331714, "MEAN_MOTION_DOT": -0.01501587, "MEAN_MOTION_DDOT": 0}, "tle": {"line1": "1 66634U 25271T   25348.25003472 -.01501587  00000+0 -29332-1 0  9995", "line2": "2 66634  53.1602 179.9418 0001081  92.5831 176.8387 15.49767212  4414"}}, "geometry": {"type": "Point", "coordinates": [-108.68178830414965, 52.0894095125996]}}, {"type": "Feature", "properties": {"norad_id": 66635, "name": "STARLINK-35955", "group": "last-30-days", "lat": 52.665170545891705, "lon": -103.59570027950288, "alt_km": 411.55579271873376, "timestamp": "2025-12-14T20:40:30.515838+00:00", "meta": {"OBJECT_NAME": "STARLINK-35955", "OBJECT_ID": "2025-271U", "EPOCH": "2025-12-14T06:00:02.999808", "MEAN_MOTION": 15.49280705, "ECCENTRICITY": 1.299e-05, "INCLINATION": 53.1601, "RA_OF_ASC_NODE": 179.9379, "ARG_OF_PERICENTER": 34.9398, "MEAN_ANOMALY": 236.4756, "EPHEMERIS_TYPE": 0, "CLASSIFICATION_TYPE": "U", "NORAD_CAT_ID": 66635, "ELEMENT_SET_NO": 999, "REV_AT_EPOCH": 448, "BSTAR": 0.00066081502, "MEAN_MOTION_DOT": 0.00036439, "MEAN_MOTION_DDOT": 0}, "tle": {"line1": "1 66635U 25271U   25348.25003472  .00036439  00000+0  66082-3 0  9997", "line2": "2 66635  53.1601 179.9379 0000129  34.9398 236.4756 15.49280705  4487"}}, "geometry": {"type": "Point", "coordinates": [-103.59570027950288, 52.665170545891705]}}, {"type": "Feature", "properties": {"norad_id": 66636, "name": "STARLINK-35968", "group": "last-30-days", "lat": 52.90483087390876, "lon": -100.47592484097758, "alt_km": 411.4967865342496, "timestamp": "2025-12-14T20:40:30.515848+00:00", "meta": {"OBJECT_NAME": "STARLINK-35968", "OBJECT_ID": "2025-271V", "EPOCH": "2025-12-14T06:00:02.999808", "MEAN_MOTION": 15.49364695, "ECCENTRICITY": 5.932e-05, "INCLINATION": 53.1601, "RA_OF_ASC_NODE": 179.9335, "ARG_OF_PERICENTER": 80.033, "MEAN_ANOMALY": 193.3134, "EPHEMERIS_TYPE": 0, "CLASSIFICATION_TYPE": "U", "NORAD_CAT_ID": 66636, "ELEMENT_SET_NO": 999, "REV_AT_EPOCH": 448, "BSTAR": -0.0021939225, "MEAN_MOTION_DOT": -0.00120829, "MEAN_MOTION_DDOT": 0}, "tle": {"line1": "1 66636U 25271V   25348.25003472 -.00120829  00000+0 -21939-2 0  9998", "line2": "2 66636  53.1601 179.9335 0000593  80.0330 193.3134 15.49364695  4485"}}, "geometry": {"type": "Point", "coordinates": [-100.47592484097758, 52.90483087390876]}}, {"type": "Feature", "properties": {"norad_id": 66637, "name": "STARLINK-35953", "group": "last-30-days", "lat": 53.05992059793593, "lon": -97.37632914259925, "alt_km": 411.8371257990548, "timestamp": "2025-12-14T20:40:30.515857+00:00", "meta": {"OBJECT_NAME": "STARLINK-35953", "OBJECT_ID": "2025-271W", "EPOCH": "2025-12-14T06:00:02.999808", "MEAN_MOTION": 15.49449918, "ECCENTRICITY": 7.894e-05, "INCLINATION": 53.1601, "RA_OF_ASC_NODE": 179.9296, "ARG_OF_PERICENTER": 38.4315, "MEAN_ANOMALY": 236.8157, "EPHEMERIS_TYPE": 0, "CLASSIFICATION_TYPE": "U", "NORAD_CAT_ID": 66637, "ELEMENT_SET_NO": 999, "REV_AT_EPOCH": 448, "BSTAR": -0.0051709214, "MEAN_MOTION_DOT": -0.00279372, "MEAN_MOTION_DDOT": 0}, "tle": {"line1": "1 66637U 25271W   25348.25003472 -.00279372  00000+0 -51709-2 0  9995", "line2": "2 66637  53.1601 179.9296 0000789  38.4315 236.8157 15.49449918  4489"}}, "geometry": {"type": "Point", "coordinates": [-97.37632914259925, 53.05992059793593]}}]}